start=new Date('2022-11-05T00:00:00.000Z').valueOf();
sats=[{"OBJECT_NAME":"STARLINK-1622","LAUNCH_DATE":"2020-08-18","PERIOD":"95.592","ECCENTRICITY":"0.00014750","REF_FRAME":"TEME","BSTAR":"0.00008982900000","SITE":"AFETR","APOAPSIS":"548.216","EPHEMERIS_TYPE":"0","PERIAPSIS":"546.173","MEAN_ANOMALY":"300.2027","DECAY_DATE":null,"NORAD_CAT_ID":"46128","MEAN_MOTION":"15.06406205","ARG_OF_PERICENTER":"59.9108","MEAN_MOTION_DOT":"0.00001057","CLASSIFICATION_TYPE":"U","TIME_SYSTEM":"UTC","ELEMENT_SET_NO":"999","TLE_LINE2":"2 46128  53.0572 357.2684 0001475  59.9108 300.2027 15.06406205122614","OBJECT_TYPE":"PAYLOAD","CENTER_NAME":"EARTH","RA_OF_ASC_NODE":"357.2684","EPOCH":"2022-11-04T19:53:25.634688","MEAN_ELEMENT_THEORY":"SGP4","COUNTRY_CODE":"US","REV_AT_EPOCH":"12261","MEAN_MOTION_DDOT":"0.0000000000000","SEMIMAJOR_AXIS":"6925.330","OBJECT_ID":"2020-057M","TLE_LINE1":"1 46128U 20057M   22308.82876892  .00001057  00000-0  89829-4 0  9993","GP_ID":"216932908","FILE":"3645105","RCS_SIZE":"LARGE","INCLINATION":"53.0572"},{"NORAD_CAT_ID":"46129","MEAN_MOTION":"15.06415635","ARG_OF_PERICENTER":"65.0342","MEAN_ANOMALY":"295.0824","DECAY_DATE":null,"OBJECT_TYPE":"PAYLOAD","MEAN_MOTION_DOT":"0.00006085","CLASSIFICATION_TYPE":"U","TIME_SYSTEM":"UTC","ELEMENT_SET_NO":"999","TLE_LINE2":"2 46129  53.0560 357.0971 0001699  65.0342 295.0824 15.06415635122629","PERIOD":"95.591","ECCENTRICITY":"0.00016990","REF_FRAME":"TEME","SITE":"AFETR","BSTAR":"0.00042686000000","APOAPSIS":"548.342","OBJECT_NAME":"STARLINK-1623","LAUNCH_DATE":"2020-08-18","PERIAPSIS":"545.989","EPHEMERIS_TYPE":"0","TLE_LINE1":"1 46129U 20057N   22308.86931542  .00006085  00000-0  42686-3 0  9997","OBJECT_ID":"2020-057N","RCS_SIZE":"LARGE","FILE":"3645105","INCLINATION":"53.0560","GP_ID":"216934158","RA_OF_ASC_NODE":"357.0971","CENTER_NAME":"EARTH","EPOCH":"2022-11-04T20:51:48.852288","COUNTRY_CODE":"US","MEAN_ELEMENT_THEORY":"SGP4","SEMIMAJOR_AXIS":"6925.301","REV_AT_EPOCH":"12262","MEAN_MOTION_DDOT":"0.0000000000000"},{"PERIOD":"95.592","ECCENTRICITY":"0.00017870","REF_FRAME":"TEME","BSTAR":"0.00011399000000","SITE":"AFETR","APOAPSIS":"548.448","OBJECT_NAME":"STARLINK-1624","LAUNCH_DATE":"2020-08-18","PERIAPSIS":"545.973","EPHEMERIS_TYPE":"0","NORAD_CAT_ID":"46130","MEAN_MOTION":"15.06401074","ARG_OF_PERICENTER":"45.8384","MEAN_ANOMALY":"314.2752","DECAY_DATE":null,"OBJECT_TYPE":"PAYLOAD","MEAN_MOTION_DOT":"0.00001417","TIME_SYSTEM":"UTC","CLASSIFICATION_TYPE":"U","TLE_LINE2":"2 46130  53.0551 357.2390 0001787  45.8384 314.2752 15.06401074123861","ELEMENT_SET_NO":"999","RA_OF_ASC_NODE":"357.2390","CENTER_NAME":"EARTH","EPOCH":"2022-11-04T20:04:03.036000","COUNTRY_CODE":"US","MEAN_ELEMENT_THEORY":"SGP4","SEMIMAJOR_AXIS":"6925.345","REV_AT_EPOCH":"12386","MEAN_MOTION_DDOT":"0.0000000000000","TLE_LINE1":"1 46130U 20057P   22308.83614625  .00001417  00000-0  11399-3 0  9997","OBJECT_ID":"2020-057P","RCS_SIZE":"LARGE","FILE":"3645105","INCLINATION":"53.0551","GP_ID":"216933897"},{"CENTER_NAME":"EARTH","RA_OF_ASC_NODE":"18.3661","EPOCH":"2022-11-04T14:00:27.870624","COUNTRY_CODE":"US","MEAN_ELEMENT_THEORY":"SGP4","SEMIMAJOR_AXIS":"6925.350","REV_AT_EPOCH":"12355","MEAN_MOTION_DDOT":"0.0000000000000","TLE_LINE1":"1 46131U 20057Q   22308.58365591  .00002284  00000-0  17219-3 0  9995","OBJECT_ID":"2020-057Q","FILE":"3645105","RCS_SIZE":"LARGE","INCLINATION":"53.0576","GP_ID":"216932658","PERIOD":"95.592","ECCENTRICITY":"0.00011970","REF_FRAME":"TEME","SITE":"AFETR","BSTAR":"0.00017219000000","APOAPSIS":"548.044","OBJECT_NAME":"STARLINK-1625","LAUNCH_DATE":"2020-08-18","PERIAPSIS":"546.386","EPHEMERIS_TYPE":"0","MEAN_MOTION":"15.06399437","NORAD_CAT_ID":"46131","ARG_OF_PERICENTER":"81.5862","MEAN_ANOMALY":"278.5263","DECAY_DATE":null,"OBJECT_TYPE":"PAYLOAD","MEAN_MOTION_DOT":"0.00002284","TIME_SYSTEM":"UTC","CLASSIFICATION_TYPE":"U","TLE_LINE2":"2 46131  53.0576  18.3661 0001197  81.5862 278.5263 15.06399437123552","ELEMENT_SET_NO":"999"},{"RCS_SIZE":"LARGE","FILE":"3644787","INCLINATION":"53.0548","GP_ID":"216902153","TLE_LINE1":"1 46132U 20057R   22308.42331321  .00000966  00000-0  83705-4 0  9992","OBJECT_ID":"2020-057R","SEMIMAJOR_AXIS":"6925.338","REV_AT_EPOCH":"12325","MEAN_MOTION_DDOT":"0.0000000000000","RA_OF_ASC_NODE":"39.1027","CENTER_NAME":"EARTH","EPOCH":"2022-11-04T10:09:34.261344","MEAN_ELEMENT_THEORY":"SGP4","COUNTRY_CODE":"US","OBJECT_TYPE":"PAYLOAD","MEAN_MOTION_DOT":"0.00000966","TIME_SYSTEM":"UTC","CLASSIFICATION_TYPE":"U","TLE_LINE2":"2 46132  53.0548  39.1027 0001453  86.3038 273.8117 15.06403408123259","ELEMENT_SET_NO":"999","MEAN_MOTION":"15.06403408","NORAD_CAT_ID":"46132","ARG_OF_PERICENTER":"86.3038","MEAN_ANOMALY":"273.8117","DECAY_DATE":null,"PERIAPSIS":"546.197","EPHEMERIS_TYPE":"0","PERIOD":"95.592","REF_FRAME":"TEME","ECCENTRICITY":"0.00014530","APOAPSIS":"548.209","SITE":"AFETR","BSTAR":"0.00008370500000","OBJECT_NAME":"STARLINK-1630","LAUNCH_DATE":"2020-08-18"},{"OBJECT_TYPE":"PAYLOAD","ELEMENT_SET_NO":"999","TLE_LINE2":"2 46133  53.0574 358.2177 0001576  47.9787 312.1336 15.06397883123833","TIME_SYSTEM":"UTC","CLASSIFICATION_TYPE":"U","MEAN_MOTION_DOT":"0.00001321","ARG_OF_PERICENTER":"47.9787","MEAN_MOTION":"15.06397883","NORAD_CAT_ID":"46133","DECAY_DATE":null,"MEAN_ANOMALY":"312.1336","PERIAPSIS":"546.129","EPHEMERIS_TYPE":"0","APOAPSIS":"548.311","SITE":"AFETR","BSTAR":"0.00010754000000","ECCENTRICITY":"0.00015760","REF_FRAME":"TEME","PERIOD":"95.592","LAUNCH_DATE":"2020-08-18","OBJECT_NAME":"STARLINK-1637","INCLINATION":"53.0574","RCS_SIZE":"LARGE","FILE":"3645105","GP_ID":"216933658","TLE_LINE1":"1 46133U 20057S   22308.62236102  .00001321  00000-0  10754-3 0  9995","OBJECT_ID":"2020-057S","SEMIMAJOR_AXIS":"6925.355","MEAN_MOTION_DDOT":"0.0000000000000","REV_AT_EPOCH":"12383","MEAN_ELEMENT_THEORY":"SGP4","COUNTRY_CODE":"US","EPOCH":"2022-11-04T14:56:11.992128","RA_OF_ASC_NODE":"358.2177","CENTER_NAME":"EARTH"},{"OBJECT_TYPE":"PAYLOAD","TLE_LINE2":"2 46134  53.0545 358.4953 0001631  59.0411 301.0738 15.06413417123235","ELEMENT_SET_NO":"999","TIME_SYSTEM":"UTC","CLASSIFICATION_TYPE":"U","MEAN_MOTION_DOT":"0.00002398","ARG_OF_PERICENTER":"59.0411","MEAN_MOTION":"15.06413417","NORAD_CAT_ID":"46134","DECAY_DATE":null,"MEAN_ANOMALY":"301.0738","PERIAPSIS":"546.043","EPHEMERIS_TYPE":"0","BSTAR":"0.00017975000000","SITE":"AFETR","APOAPSIS":"548.302","REF_FRAME":"TEME","ECCENTRICITY":"0.00016310","PERIOD":"95.591","LAUNCH_DATE":"2020-08-18","OBJECT_NAME":"STARLINK-1638","INCLINATION":"53.0545","FILE":"3644896","RCS_SIZE":"LARGE","GP_ID":"216909703","TLE_LINE1":"1 46134U 20057T   22308.55874697  .00002398  00000-0  17975-3 0  9992","OBJECT_ID":"2020-057T","SEMIMAJOR_AXIS":"6925.307","MEAN_MOTION_DDOT":"0.0000000000000","REV_AT_EPOCH":"12323","MEAN_ELEMENT_THEORY":"SGP4","COUNTRY_CODE":"US","EPOCH":"2022-11-04T13:24:35.738208","CENTER_NAME":"EARTH","RA_OF_ASC_NODE":"358.4953"},{"MEAN_ANOMALY":"290.9147","DECAY_DATE":null,"MEAN_MOTION":"15.06406570","NORAD_CAT_ID":"46135","ARG_OF_PERICENTER":"69.2014","MEAN_MOTION_DOT":"0.00003516","TIME_SYSTEM":"UTC","CLASSIFICATION_TYPE":"U","ELEMENT_SET_NO":"999","TLE_LINE2":"2 46135  53.0572 359.0196 0001605  69.2014 290.9147 15.06406570122551","OBJECT_TYPE":"PAYLOAD","OBJECT_NAME":"STARLINK-1639","LAUNCH_DATE":"2020-08-18","PERIOD":"95.592","REF_FRAME":"TEME","ECCENTRICITY":"0.00016050","BSTAR":"0.00025477000000","SITE":"AFETR","APOAPSIS":"548.305","EPHEMERIS_TYPE":"0","PERIAPSIS":"546.082","OBJECT_ID":"2020-057U","TLE_LINE1":"1 46135U 20057U   22308.44174929  .00003516  00000-0  25477-3 0  9991","GP_ID":"216901397","RCS_SIZE":"LARGE","FILE":"3644787","INCLINATION":"53.0572","CENTER_NAME":"EARTH","RA_OF_ASC_NODE":"359.0196","EPOCH":"2022-11-04T10:36:07.138656","MEAN_ELEMENT_THEORY":"SGP4","COUNTRY_CODE":"US","REV_AT_EPOCH":"12255","MEAN_MOTION_DDOT":"0.0000000000000","SEMIMAJOR_AXIS":"6925.328"},{"MEAN_MOTION_DOT":"0.00009210","TIME_SYSTEM":"UTC","CLASSIFICATION_TYPE":"U","TLE_LINE2":"2 46136  53.0547  29.3713 0001428  74.8198 285.2948 15.06432419122124","ELEMENT_SET_NO":"999","OBJECT_TYPE":"PAYLOAD","MEAN_ANOMALY":"285.2948","DECAY_DATE":null,"NORAD_CAT_ID":"46136","MEAN_MOTION":"15.06432419","ARG_OF_PERICENTER":"74.8198","EPHEMERIS_TYPE":"0","PERIAPSIS":"546.125","OBJECT_NAME":"STARLINK-1643","LAUNCH_DATE":"2020-08-18","PERIOD":"95.590","REF_FRAME":"TEME","ECCENTRICITY":"0.00014280","APOAPSIS":"548.103","SITE":"AFETR","BSTAR":"0.00063586000000","GP_ID":"216901647","RCS_SIZE":"LARGE","FILE":"3644787","INCLINATION":"53.0547","OBJECT_ID":"2020-057V","TLE_LINE1":"1 46136U 20057V   22308.35695154  .00009210  00000-0  63586-3 0  9990","REV_AT_EPOCH":"12212","MEAN_MOTION_DDOT":"0.0000000000000","SEMIMAJOR_AXIS":"6925.249","RA_OF_ASC_NODE":"29.3713","CENTER_NAME":"EARTH","EPOCH":"2022-11-04T08:34:00.613056","MEAN_ELEMENT_THEORY":"SGP4","COUNTRY_CODE":"US"},{"PERIAPSIS":"545.601","EPHEMERIS_TYPE":"0","SITE":"AFETR","BSTAR":"0.00015210000000","APOAPSIS":"548.758","REF_FRAME":"TEME","ECCENTRICITY":"0.00022800","PERIOD":"95.591","LAUNCH_DATE":"2020-08-18","OBJECT_NAME":"STARLINK-1586","OBJECT_TYPE":"PAYLOAD","ELEMENT_SET_NO":"999","TLE_LINE2":"2 46137  53.0559  18.4212 0002280  30.3877 329.7244 15.06411120122296","CLASSIFICATION_TYPE":"U","TIME_SYSTEM":"UTC","MEAN_MOTION_DOT":"0.00001985","ARG_OF_PERICENTER":"30.3877","MEAN_MOTION":"15.06411120","NORAD_CAT_ID":"46137","DECAY_DATE":null,"MEAN_ANOMALY":"329.7244","SEMIMAJOR_AXIS":"6925.314","MEAN_MOTION_DDOT":"0.0000000000000","REV_AT_EPOCH":"12229","MEAN_ELEMENT_THEORY":"SGP4","COUNTRY_CODE":"US","EPOCH":"2022-11-04T13:49:51.087072","RA_OF_ASC_NODE":"18.4212","CENTER_NAME":"EARTH","INCLINATION":"53.0559","FILE":"3645105","RCS_SIZE":"LARGE","GP_ID":"216934159","TLE_LINE1":"1 46137U 20057W   22308.57628573  .00001985  00000-0  15210-3 0  9998","OBJECT_ID":"2020-057W"}];
